OBJECT_NAME,OBJECT_ID,EPOCH,MEAN_MOTION,ECCENTRICITY,INCLINATION,RA_OF_ASC_NODE,ARG_OF_PERICENTER,MEAN_ANOMALY,EPHEMERIS_TYPE,CLASSIFICATION_TYPE,NORAD_CAT_ID,ELEMENT_SET_NO,REV_AT_EPOCH,BSTAR,MEAN_MOTION_DOT,MEAN_MOTION_DDOT
FENGYUN 3D,2017-072A,2026-06-15T04:10:39.196992,14.19739829,.0002599,99.0119,140.5597,65.6998,294.4449,0,U,43010,999,44470,.93519E-4,.152E-5,0
NOAA 20 (JPSS-1),2017-073A,2026-06-15T04:02:54.663072,14.19511335,.0000296,98.7772,105.6492,82.2564,277.8645,0,U,43013,999,44418,.34857E-4,.29E-6,0
GOES 17,2018-022A,2026-06-15T03:58:38.588160,1.00269976,.0000396,0.9323,85.7475,32.7385,115.1280,0,U,43226,999,3040,0,-.179E-5,0
SENTINEL-3B,2018-039A,2026-06-15T03:44:33.071712,14.26734175,.0000733,98.6250,233.7173,85.7408,274.3856,0,U,43437,999,42383,.48395E-4,.73E-6,0
FENGYUN 2H,2018-050A,2026-06-14T23:45:04.040640,1.00269792,.0001962,3.0244,79.0976,137.5346,122.3352,0,U,43491,999,2941,0,-.127E-5,0
METOP-C,2018-087A,2026-06-15T04:01:19.519392,14.21511586,.0001693,98.6645,225.8081,131.9056,228.2266,0,U,43689,999,39454,.59507E-4,.87E-6,0
GEO-KOMPSAT-2A,2018-100A,2026-06-15T00:05:38.738112,1.00271543,.0001774,0.0511,125.6739,320.0070,307.2938,0,U,43823,999,2760,0,-.339E-5,0
METEOR-M2 2,2019-038A,2026-06-15T04:58:50.863296,14.24366270,.0002126,98.9136,153.4634,51.7959,308.3411,0,U,44387,999,36101,.10425E-3,.195E-5,0
ARKTIKA-M 1,2021-016A,2026-06-09T12:22:37.726752,2.00625436,.7285674,63.2417,58.7595,269.8905,14.6803,0,U,47719,999,3863,0,-.149E-5,0
FENGYUN 3E,2021-062A,2026-06-15T03:47:44.660256,14.19903252,.0002846,98.7486,169.5886,89.1478,271.0024,0,U,49008,999,25629,-.74342E-4,-.202E-5,0
GOES 18,2022-021A,2026-06-15T04:49:23.364768,1.00272501,.0000511,0.0096,95.6793,73.9917,29.1697,0,U,51850,999,657,0,.101E-5,0
NOAA 21 (JPSS-2),2022-150A,2026-06-15T03:08:53.899296,14.19565121,.0001538,98.7060,104.9549,158.5514,201.5727,0,U,54234,999,18625,.39788E-4,.4E-6,0
METEOSAT-12 (MTG-I1),2022-170C,2026-06-15T04:30:13.384224,1.00272158,.0003133,0.7360,22.6213,71.8952,236.0968,0,U,54743,999,1295,0,-.5E-7,0
TIANMU-1 03,2023-039A,2026-06-15T04:11:31.463808,15.47234417,.0004279,97.5223,340.0651,103.8194,256.3531,0,U,55973,999,18052,.25251E-3,.12764E-3,0
TIANMU-1 04,2023-039B,2026-06-15T03:57:29.278080,15.47831212,.0004874,97.5161,339.2085,101.0130,259.1668,0,U,55974,999,18053,.25298E-3,.13058E-3,0
TIANMU-1 05,2023-039C,2026-06-15T03:43:41.212704,15.47163070,.0003912,97.5207,339.6604,119.6483,240.5156,0,U,55975,999,18050,.28538E-3,.14404E-3,0
TIANMU-1 06,2023-039D,2026-06-15T04:02:10.387392,15.47735898,.0004333,97.5213,340.3077,115.5643,244.6055,0,U,55976,999,18053,.2509E-3,.12905E-3,0
FENGYUN 3G,2023-055A,2026-06-14T23:34:57.591264,15.52542988,.0006929,49.9936,357.3811,287.4907,72.5303,0,U,56232,999,17966,.35853E-3,.22053E-3,0
METEOR-M2 3,2023-091A,2026-06-15T04:50:00.041568,14.24046652,.0004251,98.6090,221.2203,160.5973,199.5369,0,U,57166,999,15423,.20243E-4,.3E-7,0
TIANMU-1 07,2023-101A,2026-06-15T04:52:39.242208,15.29787483,.0003999,97.2592,216.9170,125.5940,234.5674,0,U,57399,999,16134,.18729E-3,.533E-4,0
TIANMU-1 08,2023-101B,2026-06-15T04:04:37.601760,15.29791773,.0005516,97.2582,216.6554,119.8770,240.3019,0,U,57400,999,16133,.18704E-3,.5324E-4,0
TIANMU-1 09,2023-101C,2026-06-15T03:40:48.103392,15.29823224,.0004474,97.2541,216.0560,131.4327,228.7299,0,U,57401,999,16133,.21495E-3,.6135E-4,0
TIANMU-1 10,2023-101D,2026-06-15T04:28:20.477568,15.29794076,.0006056,97.2620,217.1366,131.3765,228.7997,0,U,57402,999,16133,.19512E-3,.5558E-4,0
FENGYUN 3F,2023-111A,2026-06-15T03:24:39.235392,14.19938807,.0001583,98.6835,236.1888,94.9423,265.1934,0,U,57490,999,14857,.45887E-4,.54E-6,0
ARKTIKA-M 2,2023-198A,2026-06-09T18:48:45.592992,2.00606537,.69004015,63.2205,155.1874,267.4353,18.7899,0,U,58584,999,1817,0,.212E-5,0
TIANMU-1 11,2023-205A,2026-06-15T03:40:29.288064,15.26978163,.0009219,97.3441,187.7418,24.1063,336.0606,0,U,58645,999,13721,.20095E-3,.5254E-4,0
TIANMU-1 12,2023-205B,2026-06-15T02:57:44.636256,15.26942306,.0006966,97.3429,187.4687,10.9619,349.1771,0,U,58646,999,13719,.20912E-3,.5462E-4,0
TIANMU-1 13,2023-205C,2026-06-15T03:43:48.020160,15.26795940,.0006129,97.3459,187.7725,349.7151,10.3961,0,U,58647,999,13719,.20522E-3,.5334E-4,0
TIANMU-1 14,2023-205D,2026-06-15T03:22:34.988736,15.26840589,.000709,97.3394,186.9413,353.5422,6.5724,0,U,58648,999,13719,.20965E-3,.5459E-4,0
TIANMU-1 19,2023-208A,2026-06-15T03:08:31.042176,15.31546774,.0003967,97.4507,282.4198,337.5780,22.5287,0,U,58660,999,13701,.22946E-3,.6913E-4,0
TIANMU-1 20,2023-208B,2026-06-15T05:39:15.126336,15.32739023,.0006184,97.4449,283.1582,341.9155,18.1866,0,U,58661,999,13712,.20431E-3,.6383E-4,0
