FENGYUN 3D              
1 43010U 17072A   26166.17406478  .00000152  00000+0  93519-4 0  9991
2 43010  99.0119 140.5597 0002599  65.6998 294.4449 14.19739829444706
NOAA 20 (JPSS-1)        
1 43013U 17073A   26166.16868823  .00000029  00000+0  34857-4 0  9993
2 43013  98.7772 105.6492 0000296  82.2564 277.8645 14.19511335444187
GOES 17                 
1 43226U 18022A   26166.16572440 -.00000179  00000+0  00000+0 0  9996
2 43226   0.9323  85.7475 0000396  32.7385 115.1280  1.00269976 30403
SENTINEL-3B             
1 43437U 18039A   26166.15593833  .00000073  00000+0  48395-4 0  9992
2 43437  98.6250 233.7173 0000733  85.7408 274.3856 14.26734175423839
FENGYUN 2H              
1 43491U 18050A   26165.98963010 -.00000127  00000+0  00000+0 0  9990
2 43491   3.0244  79.0976 0001962 137.5346 122.3352  1.00269792 29411
METOP-C                 
1 43689U 18087A   26166.16758703  .00000087  00000+0  59507-4 0  9996
2 43689  98.6645 225.8081 0001693 131.9056 228.2266 14.21511586394547
GEO-KOMPSAT-2A          
1 43823U 18100A   26166.00392058 -.00000339  00000+0  00000+0 0  9992
2 43823   0.0511 125.6739 0001774 320.0070 307.2938  1.00271543 27603
METEOR-M2 2             
1 44387U 19038A   26166.20753314  .00000195  00000+0  10425-3 0  9992
2 44387  98.9136 153.4634 0002126  51.7959 308.3411 14.24366270361013
ARKTIKA-M 1             
1 47719U 21016A   26160.51571443 -.00000149  00000+0  00000+0 0  9996
2 47719  63.2417  58.7595 7285674 269.8905  14.6803  2.00625436 38630
FENGYUN 3E              
1 49008U 21062A   26166.15815579 -.00000202  00000+0 -74342-4 0  9993
2 49008  98.7486 169.5886 0002846  89.1478 271.0024 14.19903252256291
GOES 18                 
1 51850U 22021A   26166.20096487  .00000101  00000+0  00000+0 0  9993
2 51850   0.0096  95.6793 0000511  73.9917  29.1697  1.00272501  6578
NOAA 21 (JPSS-2)        
1 54234U 22150A   26166.13117939  .00000040  00000+0  39788-4 0  9995
2 54234  98.7060 104.9549 0001538 158.5514 201.5727 14.19565121186259
METEOSAT-12 (MTG-I1)    
1 54743U 22170C   26166.18765491 -.00000005  00000+0  00000+0 0  9991
2 54743   0.7360  22.6213 0003133  71.8952 236.0968  1.00272158 12956
TIANMU-1 03             
1 55973U 23039A   26166.17466972  .00012764  00000+0  25251-3 0  9996
2 55973  97.5223 340.0651 0004279 103.8194 256.3531 15.47234417180525
TIANMU-1 04             
1 55974U 23039B   26166.16492220  .00013058  00000+0  25298-3 0  9999
2 55974  97.5161 339.2085 0004874 101.0130 259.1668 15.47831212180538
TIANMU-1 05             
1 55975U 23039C   26166.15533811  .00014404  00000+0  28538-3 0  9997
2 55975  97.5207 339.6604 0003912 119.6483 240.5156 15.47163070180502
TIANMU-1 06             
1 55976U 23039D   26166.16817578  .00012905  00000+0  25090-3 0  9998
2 55976  97.5213 340.3077 0004333 115.5643 244.6055 15.47735898180533
FENGYUN 3G              
1 56232U 23055A   26165.98261101  .00022053  00000+0  35853-3 0  9999
2 56232  49.9936 357.3811 0006929 287.4907  72.5303 15.52542988179669
METEOR-M2 3             
1 57166U 23091A   26166.20138937  .00000003  00000+0  20243-4 0  9991
2 57166  98.6090 221.2203 0004251 160.5973 199.5369 14.24046652154235
TIANMU-1 07             
1 57399U 23101A   26166.20323197  .00005330  00000+0  18729-3 0  9998
2 57399  97.2592 216.9170 0003999 125.5940 234.5674 15.29787483161341
TIANMU-1 08             
1 57400U 23101B   26166.16987965  .00005324  00000+0  18704-3 0  9991
2 57400  97.2582 216.6554 0005516 119.8770 240.3019 15.29791773161334
TIANMU-1 09             
1 57401U 23101C   26166.15333453  .00006135  00000+0  21495-3 0  9990
2 57401  97.2541 216.0560 0004474 131.4327 228.7299 15.29823224161338
TIANMU-1 10             
1 57402U 23101D   26166.18634812  .00005558  00000+0  19512-3 0  9992
2 57402  97.2620 217.1366 0006056 131.3765 228.7997 15.29794076161333
FENGYUN 3F              
1 57490U 23111A   26166.14212078  .00000054  00000+0  45887-4 0  9993
2 57490  98.6835 236.1888 0001583  94.9423 265.1934 14.19938807148575
ARKTIKA-M 2             
1 58584U 23198A   26160.78386103  .00000212  00000+0  00000+0 0  9997
2 58584  63.2205 155.1874 6900401 267.4353  18.7899  2.00606537 18179
TIANMU-1 11             
1 58645U 23205A   26166.15311676  .00005254  00000+0  20095-3 0  9995
2 58645  97.3441 187.7418 0009219  24.1063 336.0606 15.26978163137217
TIANMU-1 12             
1 58646U 23205B   26166.12343329  .00005462  00000+0  20912-3 0  9992
2 58646  97.3429 187.4687 0006966  10.9619 349.1771 15.26942306137190
TIANMU-1 13             
1 58647U 23205C   26166.15541690  .00005334  00000+0  20522-3 0  9992
2 58647  97.3459 187.7725 0006129 349.7151  10.3961 15.26795940137193
TIANMU-1 14             
1 58648U 23205D   26166.14068274  .00005459  00000+0  20965-3 0  9993
2 58648  97.3394 186.9413 0007090 353.5422   6.5724 15.26840589137193
TIANMU-1 19             
1 58660U 23208A   26166.13091484  .00006913  00000+0  22946-3 0  9995
2 58660  97.4507 282.4198 0003967 337.5780  22.5287 15.31546774137012
TIANMU-1 20             
1 58661U 23208B   26166.23559174  .00006383  00000+0  20431-3 0  9990
2 58661  97.4449 283.1582 0006184 341.9155  18.1866 15.32739023137120
